start=new Date('2021-10-17T00:00:00.000Z').valueOf();
sats=[{"ELEMENT_SET_NO":"999","CLASSIFICATION_TYPE":"U","ECCENTRICITY":"0.00013220","TLE_LINE2":"2 46792  53.0540 318.2542 0001322  92.8731 267.2409 15.06380122 54850","GP_ID":"187357630","EPOCH":"2021-10-16T08:30:25.892640","LAUNCH_DATE":"2020-10-24","OBJECT_TYPE":"PAYLOAD","MEAN_ANOMALY":"267.2409","REF_FRAME":"TEME","APOAPSIS":"548.190","MEAN_ELEMENT_THEORY":"SGP4","ARG_OF_PERICENTER":"92.8731","TLE_LINE1":"1 46792U 20074BF  21289.35446635  .00000024  00000-0  20527-4 0  9995","COUNTRY_CODE":"US","MEAN_MOTION":"15.06380122","MEAN_MOTION_DOT":"0.00000024","PERIAPSIS":"546.359","SITE":"AFETR","CENTER_NAME":"EARTH","OBJECT_ID":"2020-074BF","BSTAR":"0.00002052700000","DECAY_DATE":null,"PERIOD":"95.593","OBJECT_NAME":"STARLINK-1934","INCLINATION":"53.0540","RA_OF_ASC_NODE":"318.2542","RCS_SIZE":"LARGE","EPHEMERIS_TYPE":"0","TIME_SYSTEM":"UTC","SEMIMAJOR_AXIS":"6925.409","FILE":"3166610","MEAN_MOTION_DDOT":"0.0000000000000","NORAD_CAT_ID":"46792","REV_AT_EPOCH":"5485"},{"BSTAR":"0.00015923000000","CENTER_NAME":"EARTH","SITE":"AFETR","OBJECT_ID":"2020-074BG","OBJECT_NAME":"STARLINK-1941","PERIOD":"95.593","RA_OF_ASC_NODE":"328.4129","INCLINATION":"53.0571","DECAY_DATE":null,"TIME_SYSTEM":"UTC","RCS_SIZE":"LARGE","EPHEMERIS_TYPE":"0","MEAN_MOTION_DDOT":"0.0000000000000","REV_AT_EPOCH":"5470","NORAD_CAT_ID":"46793","SEMIMAJOR_AXIS":"6925.376","FILE":"3166610","ECCENTRICITY":"0.00012310","EPOCH":"2021-10-16T07:36:00.634464","GP_ID":"187356378","TLE_LINE2":"2 46793  53.0571 328.4129 0001231  83.0989 277.0140 15.06391128 54708","ELEMENT_SET_NO":"999","CLASSIFICATION_TYPE":"U","REF_FRAME":"TEME","MEAN_ANOMALY":"277.0140","OBJECT_TYPE":"PAYLOAD","LAUNCH_DATE":"2020-10-24","TLE_LINE1":"1 46793U 20074BG  21289.31667401  .00002091  00000-0  15923-3 0  9997","COUNTRY_CODE":"US","MEAN_MOTION":"15.06391128","APOAPSIS":"548.093","ARG_OF_PERICENTER":"83.0989","MEAN_ELEMENT_THEORY":"SGP4","PERIAPSIS":"546.388","MEAN_MOTION_DOT":"0.00002091"},{"PERIOD":"95.593","OBJECT_NAME":"STARLINK-1942","RA_OF_ASC_NODE":"328.3930","INCLINATION":"53.0543","DECAY_DATE":null,"BSTAR":"0.00000889850000","CENTER_NAME":"EARTH","SITE":"AFETR","OBJECT_ID":"2020-074BH","MEAN_MOTION_DDOT":"0.0000000000000","REV_AT_EPOCH":"5471","NORAD_CAT_ID":"46794","SEMIMAJOR_AXIS":"6925.375","FILE":"3166610","TIME_SYSTEM":"UTC","RCS_SIZE":"LARGE","EPHEMERIS_TYPE":"0","REF_FRAME":"TEME","MEAN_ANOMALY":"261.6994","OBJECT_TYPE":"PAYLOAD","LAUNCH_DATE":"2020-10-24","ECCENTRICITY":"0.00010490","EPOCH":"2021-10-16T07:46:36.544512","GP_ID":"187357128","TLE_LINE2":"2 46794  53.0543 328.3930 0001049  98.4114 261.6994 15.06391254 54711","CLASSIFICATION_TYPE":"U","ELEMENT_SET_NO":"999","PERIAPSIS":"546.514","MEAN_MOTION_DOT":"-0.00000149","TLE_LINE1":"1 46794U 20074BH  21289.32403408 -.00000149  00000-0  88985-5 0  9997","COUNTRY_CODE":"US","MEAN_MOTION":"15.06391254","APOAPSIS":"547.967","ARG_OF_PERICENTER":"98.4114","MEAN_ELEMENT_THEORY":"SGP4"},{"EPHEMERIS_TYPE":"0","RCS_SIZE":"LARGE","TIME_SYSTEM":"UTC","FILE":"3166610","SEMIMAJOR_AXIS":"6776.700","REV_AT_EPOCH":"5539","NORAD_CAT_ID":"46795","MEAN_MOTION_DDOT":"0.0000000000000","OBJECT_ID":"2020-074BJ","SITE":"AFETR","CENTER_NAME":"EARTH","BSTAR":"0.00112060000000","DECAY_DATE":null,"RA_OF_ASC_NODE":"279.7505","INCLINATION":"53.0506","OBJECT_NAME":"STARLINK-1943","PERIOD":"92.531","ARG_OF_PERICENTER":"288.9565","MEAN_ELEMENT_THEORY":"SGP4","APOAPSIS":"401.837","MEAN_MOTION":"15.56235548","TLE_LINE1":"1 46795U 20074BJ  21289.24765845  .00080406  00000-0  11206-2 0  9997","COUNTRY_CODE":"US","MEAN_MOTION_DOT":"0.00080406","PERIAPSIS":"395.294","ELEMENT_SET_NO":"999","CLASSIFICATION_TYPE":"U","EPOCH":"2021-10-16T05:56:37.690080","TLE_LINE2":"2 46795  53.0506 279.7505 0004828 288.9565  71.0922 15.56235548 55399","GP_ID":"187357380","ECCENTRICITY":"0.00048280","LAUNCH_DATE":"2020-10-24","REF_FRAME":"TEME","MEAN_ANOMALY":"71.0922","OBJECT_TYPE":"PAYLOAD"},{"TIME_SYSTEM":"UTC","RCS_SIZE":"LARGE","EPHEMERIS_TYPE":"0","REV_AT_EPOCH":"5484","NORAD_CAT_ID":"46796","MEAN_MOTION_DDOT":"0.0000000000000","FILE":"3166610","SEMIMAJOR_AXIS":"6925.380","BSTAR":"0.00013064000000","OBJECT_ID":"2020-074BK","CENTER_NAME":"EARTH","SITE":"AFETR","RA_OF_ASC_NODE":"318.4935","INCLINATION":"53.0556","PERIOD":"95.593","OBJECT_NAME":"STARLINK-1944","DECAY_DATE":null,"MEAN_MOTION":"15.06389794","TLE_LINE1":"1 46796U 20074BK  21289.29915967  .00001664  00000-0  13064-3 0  9999","COUNTRY_CODE":"US","ARG_OF_PERICENTER":"92.2914","MEAN_ELEMENT_THEORY":"SGP4","APOAPSIS":"548.099","PERIAPSIS":"546.391","MEAN_MOTION_DOT":"0.00001664","EPOCH":"2021-10-16T07:10:47.395488","TLE_LINE2":"2 46796  53.0556 318.4935 0001233  92.2914 267.8216 15.06389794 54842","GP_ID":"187358130","ECCENTRICITY":"0.00012330","ELEMENT_SET_NO":"999","CLASSIFICATION_TYPE":"U","REF_FRAME":"TEME","OBJECT_TYPE":"PAYLOAD","MEAN_ANOMALY":"267.8216","LAUNCH_DATE":"2020-10-24"},{"BSTAR":"0.00005736700000","SITE":"AFETR","CENTER_NAME":"EARTH","OBJECT_ID":"2020-074BL","PERIOD":"93.375","OBJECT_NAME":"STARLINK-1947","INCLINATION":"53.0560","RA_OF_ASC_NODE":"293.3835","DECAY_DATE":null,"TIME_SYSTEM":"UTC","EPHEMERIS_TYPE":"0","RCS_SIZE":"LARGE","MEAN_MOTION_DDOT":"0.0000000000000","NORAD_CAT_ID":"46797","REV_AT_EPOCH":"5520","SEMIMAJOR_AXIS":"6817.862","FILE":"3166610","ECCENTRICITY":"0.00008980","TLE_LINE2":"2 46797  53.0560 293.3835 0000898  70.3276 289.7826 15.42163522 55202","GP_ID":"187356878","EPOCH":"2021-10-16T06:37:28.766496","ELEMENT_SET_NO":"999","CLASSIFICATION_TYPE":"U","MEAN_ANOMALY":"289.7826","OBJECT_TYPE":"PAYLOAD","REF_FRAME":"TEME","LAUNCH_DATE":"2020-10-24","TLE_LINE1":"1 46797U 20074BL  21289.27602739  .00002086  00000-0  57367-4 0  9992","COUNTRY_CODE":"US","MEAN_MOTION":"15.42163522","APOAPSIS":"440.340","ARG_OF_PERICENTER":"70.3276","MEAN_ELEMENT_THEORY":"SGP4","PERIAPSIS":"439.115","MEAN_MOTION_DOT":"0.00002086"},{"PERIAPSIS":"546.466","MEAN_MOTION_DOT":"0.00001615","MEAN_MOTION":"15.06380452","COUNTRY_CODE":"US","TLE_LINE1":"1 46798U 20074BM  21289.33093705  .00001615  00000-0  12732-3 0  9990","MEAN_ELEMENT_THEORY":"SGP4","ARG_OF_PERICENTER":"104.3671","APOAPSIS":"548.081","REF_FRAME":"TEME","OBJECT_TYPE":"PAYLOAD","MEAN_ANOMALY":"255.7447","LAUNCH_DATE":"2020-10-24","EPOCH":"2021-10-16T07:56:32.961120","TLE_LINE2":"2 46798  53.0554 343.3621 0001166 104.3671 255.7447 15.06380452 54508","GP_ID":"187356629","ECCENTRICITY":"0.00011660","ELEMENT_SET_NO":"999","CLASSIFICATION_TYPE":"U","REV_AT_EPOCH":"5450","NORAD_CAT_ID":"46798","MEAN_MOTION_DDOT":"0.0000000000000","FILE":"3166610","SEMIMAJOR_AXIS":"6925.408","TIME_SYSTEM":"UTC","RCS_SIZE":"LARGE","EPHEMERIS_TYPE":"0","RA_OF_ASC_NODE":"343.3621","INCLINATION":"53.0554","OBJECT_NAME":"STARLINK-1948","PERIOD":"95.593","DECAY_DATE":null,"BSTAR":"0.00012732000000","OBJECT_ID":"2020-074BM","SITE":"AFETR","CENTER_NAME":"EARTH"},{"PERIAPSIS":"546.258","MEAN_MOTION_DOT":"0.00000517","TLE_LINE1":"1 47122U 20088A   21289.35169769  .00000517  00000-0  53637-4 0  9993","COUNTRY_CODE":"US","MEAN_MOTION":"15.06386511","APOAPSIS":"548.252","ARG_OF_PERICENTER":"88.4317","MEAN_ELEMENT_THEORY":"SGP4","REF_FRAME":"TEME","OBJECT_TYPE":"PAYLOAD","MEAN_ANOMALY":"271.6837","LAUNCH_DATE":"2020-11-25","ECCENTRICITY":"0.00014400","EPOCH":"2021-10-16T08:26:26.680416","GP_ID":"187357918","TLE_LINE2":"2 47122  53.0540 308.2624 0001440  88.4317 271.6837 15.06386511 49878","CLASSIFICATION_TYPE":"U","ELEMENT_SET_NO":"999","MEAN_MOTION_DDOT":"0.0000000000000","REV_AT_EPOCH":"4987","NORAD_CAT_ID":"47122","SEMIMAJOR_AXIS":"6925.390","FILE":"3166610","TIME_SYSTEM":"UTC","EPHEMERIS_TYPE":"0","RCS_SIZE":"LARGE","OBJECT_NAME":"STARLINK-1777","PERIOD":"95.593","RA_OF_ASC_NODE":"308.2624","INCLINATION":"53.0540","DECAY_DATE":null,"BSTAR":"0.00005363700000","SITE":"AFETR","CENTER_NAME":"EARTH","OBJECT_ID":"2020-088A"},{"ELEMENT_SET_NO":"999","CLASSIFICATION_TYPE":"U","GP_ID":"187357669","TLE_LINE2":"2 47124  53.0541 313.3385 0001316  79.3599 280.7538 15.06378347 49805","EPOCH":"2021-10-16T08:05:51.201888","ECCENTRICITY":"0.00013160","LAUNCH_DATE":"2020-11-25","OBJECT_TYPE":"PAYLOAD","MEAN_ANOMALY":"280.7538","REF_FRAME":"TEME","MEAN_ELEMENT_THEORY":"SGP4","ARG_OF_PERICENTER":"79.3599","APOAPSIS":"548.191","MEAN_MOTION":"15.06378347","TLE_LINE1":"1 47124U 20088C   21289.33739817  .00000036  00000-0  21287-4 0  9992","COUNTRY_CODE":"US","MEAN_MOTION_DOT":"0.00000036","PERIAPSIS":"546.369","OBJECT_ID":"2020-088C","SITE":"AFETR","CENTER_NAME":"EARTH","BSTAR":"0.00002128700000","DECAY_DATE":null,"INCLINATION":"53.0541","RA_OF_ASC_NODE":"313.3385","PERIOD":"95.594","OBJECT_NAME":"STARLINK-1785","RCS_SIZE":"LARGE","EPHEMERIS_TYPE":"0","TIME_SYSTEM":"UTC","FILE":"3166610","SEMIMAJOR_AXIS":"6925.415","NORAD_CAT_ID":"47124","REV_AT_EPOCH":"4980","MEAN_MOTION_DDOT":"0.0000000000000"},{"ARG_OF_PERICENTER":"77.6797","MEAN_ELEMENT_THEORY":"SGP4","APOAPSIS":"548.375","MEAN_MOTION":"15.06385194","TLE_LINE1":"1 47126U 20088E   21289.57654532  .00002901  00000-0  21365-3 0  9999","COUNTRY_CODE":"US","MEAN_MOTION_DOT":"0.00002901","PERIAPSIS":"546.143","CLASSIFICATION_TYPE":"U","ELEMENT_SET_NO":"999","EPOCH":"2021-10-16T13:50:13.515648","TLE_LINE2":"2 47126  53.0528 307.2599 0001611  77.6797 282.4372 15.06385194 50210","GP_ID":"187334291","ECCENTRICITY":"0.00016110","LAUNCH_DATE":"2020-11-25","REF_FRAME":"TEME","OBJECT_TYPE":"PAYLOAD","MEAN_ANOMALY":"282.4372","EPHEMERIS_TYPE":"0","RCS_SIZE":"LARGE","TIME_SYSTEM":"UTC","FILE":"3166530","SEMIMAJOR_AXIS":"6925.394","REV_AT_EPOCH":"5021","NORAD_CAT_ID":"47126","MEAN_MOTION_DDOT":"0.0000000000000","OBJECT_ID":"2020-088E","CENTER_NAME":"EARTH","SITE":"AFETR","BSTAR":"0.00021365000000","DECAY_DATE":null,"RA_OF_ASC_NODE":"307.2599","INCLINATION":"53.0528","PERIOD":"95.593","OBJECT_NAME":"STARLINK-1812"}];
